start=new Date('2022-11-29T00:00:00.000Z').valueOf();
sats=[{"FILE":"3671950","ARG_OF_PERICENTER":"65.4611","CLASSIFICATION_TYPE":"U","MEAN_ELEMENT_THEORY":"SGP4","MEAN_ANOMALY":"294.6560","MEAN_MOTION_DOT":"-0.00000964","PERIAPSIS":"546.028","INCLINATION":"53.0554","REV_AT_EPOCH":"12650","TLE_LINE1":"1 46151U 20057AL  22332.13313613 -.00000964  00000-0 -45805-4 0  9991","NORAD_CAT_ID":"46151","SEMIMAJOR_AXIS":"6925.375","OBJECT_ID":"2020-057AL","BSTAR":"-0.00004580500000","OBJECT_TYPE":"PAYLOAD","EPHEMERIS_TYPE":"0","LAUNCH_DATE":"2020-08-18","REF_FRAME":"TEME","TLE_LINE2":"2 46151  53.0554 272.6498 0001750  65.4611 294.6560 15.06391463126509","ELEMENT_SET_NO":"999","MEAN_MOTION":"15.06391463","DECAY_DATE":null,"OBJECT_NAME":"STARLINK-1631","COUNTRY_CODE":"US","SITE":"AFETR","EPOCH":"2022-11-28T03:11:42.961632","ECCENTRICITY":"0.00017500","APOAPSIS":"548.452","RA_OF_ASC_NODE":"272.6498","TIME_SYSTEM":"UTC","PERIOD":"95.593","RCS_SIZE":"LARGE","MEAN_MOTION_DDOT":"0.0000000000000","GP_ID":"218994911","CENTER_NAME":"EARTH"},{"MEAN_ELEMENT_THEORY":"SGP4","MEAN_ANOMALY":"306.3047","MEAN_MOTION_DOT":"-0.00001976","FILE":"3672230","ARG_OF_PERICENTER":"53.8108","CLASSIFICATION_TYPE":"U","SEMIMAJOR_AXIS":"6925.323","OBJECT_ID":"2020-057AM","BSTAR":"-0.00011376000000","INCLINATION":"53.0552","PERIAPSIS":"545.944","REV_AT_EPOCH":"12625","TLE_LINE1":"1 46152U 20057AM  22332.31558002 -.00001976  00000-0 -11376-3 0  9994","NORAD_CAT_ID":"46152","TLE_LINE2":"2 46152  53.0552 291.8459 0001797  53.8108 306.3047 15.06408227126251","REF_FRAME":"TEME","OBJECT_TYPE":"PAYLOAD","EPHEMERIS_TYPE":"0","LAUNCH_DATE":"2020-08-18","DECAY_DATE":null,"ELEMENT_SET_NO":"999","MEAN_MOTION":"15.06408227","COUNTRY_CODE":"US","OBJECT_NAME":"STARLINK-1634","PERIOD":"95.592","TIME_SYSTEM":"UTC","RCS_SIZE":"LARGE","SITE":"AFETR","EPOCH":"2022-11-28T07:34:26.113728","ECCENTRICITY":"0.00017970","RA_OF_ASC_NODE":"291.8459","APOAPSIS":"548.433","MEAN_MOTION_DDOT":"0.0000000000000","GP_ID":"219000623","CENTER_NAME":"EARTH"},{"MEAN_ELEMENT_THEORY":"SGP4","MEAN_ANOMALY":"306.6888","MEAN_MOTION_DOT":"-0.00000781","FILE":"3672123","ARG_OF_PERICENTER":"53.4252","CLASSIFICATION_TYPE":"U","TLE_LINE2":"2 46153  53.0548 272.2752 0001647  53.4252 306.6888 15.06388777126518","REF_FRAME":"TEME","OBJECT_TYPE":"PAYLOAD","EPHEMERIS_TYPE":"0","LAUNCH_DATE":"2020-08-18","SEMIMAJOR_AXIS":"6925.383","OBJECT_ID":"2020-057AN","BSTAR":"-0.00003356600000","PERIAPSIS":"546.107","REV_AT_EPOCH":"12651","INCLINATION":"53.0548","TLE_LINE1":"1 46153U 20057AN  22332.21791519 -.00000781  00000-0 -33566-4 0  9995","NORAD_CAT_ID":"46153","COUNTRY_CODE":"US","OBJECT_NAME":"STARLINK-1636","DECAY_DATE":null,"ELEMENT_SET_NO":"999","MEAN_MOTION":"15.06388777","GP_ID":"218999014","MEAN_MOTION_DDOT":"0.0000000000000","CENTER_NAME":"EARTH","TIME_SYSTEM":"UTC","PERIOD":"95.593","RCS_SIZE":"LARGE","SITE":"AFETR","EPOCH":"2022-11-28T05:13:47.872416","ECCENTRICITY":"0.00016470","APOAPSIS":"548.389","RA_OF_ASC_NODE":"272.2752"},{"ELEMENT_SET_NO":"999","MEAN_MOTION":"15.06400188","DECAY_DATE":null,"OBJECT_NAME":"STARLINK-1642","COUNTRY_CODE":"US","ECCENTRICITY":"0.00016240","APOAPSIS":"548.338","RA_OF_ASC_NODE":"282.5310","SITE":"AFETR","EPOCH":"2022-11-28T03:52:50.327040","RCS_SIZE":"LARGE","PERIOD":"95.592","TIME_SYSTEM":"UTC","CENTER_NAME":"EARTH","GP_ID":"219000639","MEAN_MOTION_DDOT":"0.0000000000000","CLASSIFICATION_TYPE":"U","FILE":"3672231","ARG_OF_PERICENTER":"63.6463","MEAN_ELEMENT_THEORY":"SGP4","MEAN_ANOMALY":"296.4693","MEAN_MOTION_DOT":"0.00001162","TLE_LINE1":"1 46154U 20057AP  22332.16169360  .00001162  00000-0  96867-4 0  9998","NORAD_CAT_ID":"46154","PERIAPSIS":"546.088","REV_AT_EPOCH":"12636","INCLINATION":"53.0553","OBJECT_ID":"2020-057AP","BSTAR":"0.00009686700000","SEMIMAJOR_AXIS":"6925.348","EPHEMERIS_TYPE":"0","LAUNCH_DATE":"2020-08-18","OBJECT_TYPE":"PAYLOAD","REF_FRAME":"TEME","TLE_LINE2":"2 46154  53.0553 282.5310 0001624  63.6463 296.4693 15.06400188126365"},{"REF_FRAME":"TEME","TLE_LINE2":"2 46155  53.0569 252.4238 0001611  51.7109 308.4025 15.06460836126795","OBJECT_TYPE":"PAYLOAD","EPHEMERIS_TYPE":"0","LAUNCH_DATE":"2020-08-18","SEMIMAJOR_AXIS":"6925.162","OBJECT_ID":"2020-057AQ","BSTAR":"-0.00090551000000","PERIAPSIS":"545.911","REV_AT_EPOCH":"12679","INCLINATION":"53.0569","TLE_LINE1":"1 46155U 20057AQ  22332.18656177 -.00013766  00000-0 -90551-3 0  9996","NORAD_CAT_ID":"46155","MEAN_ANOMALY":"308.4025","MEAN_ELEMENT_THEORY":"SGP4","MEAN_MOTION_DOT":"-0.00013766","FILE":"3672234","ARG_OF_PERICENTER":"51.7109","CLASSIFICATION_TYPE":"U","MEAN_MOTION_DDOT":"0.0000000000000","GP_ID":"219000645","CENTER_NAME":"EARTH","PERIOD":"95.588","TIME_SYSTEM":"UTC","RCS_SIZE":"LARGE","SITE":"AFETR","EPOCH":"2022-11-28T04:28:38.936928","ECCENTRICITY":"0.00016110","RA_OF_ASC_NODE":"252.4238","APOAPSIS":"548.143","COUNTRY_CODE":"US","OBJECT_NAME":"STARLINK-1667","DECAY_DATE":null,"ELEMENT_SET_NO":"999","MEAN_MOTION":"15.06460836"},{"CENTER_NAME":"EARTH","GP_ID":"218999128","MEAN_MOTION_DDOT":"0.0000000000000","RCS_SIZE":"LARGE","TIME_SYSTEM":"UTC","PERIOD":"95.592","ECCENTRICITY":"0.00017020","APOAPSIS":"548.384","RA_OF_ASC_NODE":"272.1745","SITE":"AFETR","EPOCH":"2022-11-28T05:50:56.065344","COUNTRY_CODE":"US","OBJECT_NAME":"STARLINK-1545","DECAY_DATE":null,"ELEMENT_SET_NO":"999","MEAN_MOTION":"15.06402543","TLE_LINE2":"2 46156  53.0532 272.1745 0001702  52.0510 308.0632 15.06402543126532","REF_FRAME":"TEME","EPHEMERIS_TYPE":"0","LAUNCH_DATE":"2020-08-18","OBJECT_TYPE":"PAYLOAD","OBJECT_ID":"2020-057AR","BSTAR":"-0.00007408200000","SEMIMAJOR_AXIS":"6925.341","TLE_LINE1":"1 46156U 20057AR  22332.24370446 -.00001385  00000-0 -74082-4 0  9992","NORAD_CAT_ID":"46156","INCLINATION":"53.0532","PERIAPSIS":"546.027","REV_AT_EPOCH":"12653","MEAN_ELEMENT_THEORY":"SGP4","MEAN_ANOMALY":"308.0632","MEAN_MOTION_DOT":"-0.00001385","CLASSIFICATION_TYPE":"U","FILE":"3672123","ARG_OF_PERICENTER":"52.0510"},{"MEAN_MOTION_DDOT":"0.0000000000000","GP_ID":"218987447","CENTER_NAME":"EARTH","PERIOD":"95.593","TIME_SYSTEM":"UTC","RCS_SIZE":"LARGE","SITE":"AFETR","EPOCH":"2022-11-27T19:59:08.264256","ECCENTRICITY":"0.00025380","RA_OF_ASC_NODE":"254.0185","APOAPSIS":"549.007","COUNTRY_CODE":"US","OBJECT_NAME":"STARLINK-1587","DECAY_DATE":null,"ELEMENT_SET_NO":"999","MEAN_MOTION":"15.06388236","TLE_LINE2":"2 46157  53.0549 254.0185 0002538  41.1635 318.9545 15.06388236126088","REF_FRAME":"TEME","OBJECT_TYPE":"PAYLOAD","EPHEMERIS_TYPE":"0","LAUNCH_DATE":"2020-08-18","SEMIMAJOR_AXIS":"6925.385","OBJECT_ID":"2020-057AS","BSTAR":"-0.00010938000000","INCLINATION":"53.0549","PERIAPSIS":"545.492","REV_AT_EPOCH":"12608","TLE_LINE1":"1 46157U 20057AS  22331.83273454 -.00001910  00000-0 -10938-3 0  9991","NORAD_CAT_ID":"46157","MEAN_ELEMENT_THEORY":"SGP4","MEAN_ANOMALY":"318.9545","MEAN_MOTION_DOT":"-0.00001910","FILE":"3671921","ARG_OF_PERICENTER":"41.1635","CLASSIFICATION_TYPE":"U"},{"COUNTRY_CODE":"US","OBJECT_NAME":"STARLINK-1589","DECAY_DATE":null,"MEAN_MOTION":"15.06388108","ELEMENT_SET_NO":"999","CENTER_NAME":"EARTH","MEAN_MOTION_DDOT":"0.0000000000000","GP_ID":"218988697","RCS_SIZE":"LARGE","PERIOD":"95.593","TIME_SYSTEM":"UTC","APOAPSIS":"548.617","RA_OF_ASC_NODE":"254.0281","ECCENTRICITY":"0.00019740","EPOCH":"2022-11-27T19:53:49.691904","SITE":"AFETR","MEAN_MOTION_DOT":"-0.00000606","MEAN_ELEMENT_THEORY":"SGP4","MEAN_ANOMALY":"315.1208","CLASSIFICATION_TYPE":"U","ARG_OF_PERICENTER":"44.9941","FILE":"3671921","REF_FRAME":"TEME","TLE_LINE2":"2 46158  53.0541 254.0281 0001974  44.9941 315.1208 15.06388108127345","LAUNCH_DATE":"2020-08-18","EPHEMERIS_TYPE":"0","OBJECT_TYPE":"PAYLOAD","BSTAR":"-0.00002180500000","OBJECT_ID":"2020-057AT","SEMIMAJOR_AXIS":"6925.385","NORAD_CAT_ID":"46158","TLE_LINE1":"1 46158U 20057AT  22331.82904736 -.00000606  00000-0 -21805-4 0  9992","PERIAPSIS":"545.883","REV_AT_EPOCH":"12734","INCLINATION":"53.0541"},{"MEAN_MOTION":"15.06400360","ELEMENT_SET_NO":"999","DECAY_DATE":null,"OBJECT_NAME":"STARLINK-1595","COUNTRY_CODE":"US","RA_OF_ASC_NODE":"292.0665","APOAPSIS":"548.575","ECCENTRICITY":"0.00019670","EPOCH":"2022-11-28T06:25:26.655168","SITE":"AFETR","RCS_SIZE":"LARGE","PERIOD":"95.592","TIME_SYSTEM":"UTC","CENTER_NAME":"EARTH","MEAN_MOTION_DDOT":"0.0000000000000","GP_ID":"219000004","CLASSIFICATION_TYPE":"U","ARG_OF_PERICENTER":"53.7398","FILE":"3672217","MEAN_MOTION_DOT":"-0.00001255","MEAN_ANOMALY":"306.3772","MEAN_ELEMENT_THEORY":"SGP4","NORAD_CAT_ID":"46159","TLE_LINE1":"1 46159U 20057AU  22332.26766962 -.00001255  00000-0 -65346-4 0  9998","PERIAPSIS":"545.850","REV_AT_EPOCH":"12624","INCLINATION":"53.0542","BSTAR":"-0.00006534600000","OBJECT_ID":"2020-057AU","SEMIMAJOR_AXIS":"6925.347","LAUNCH_DATE":"2020-08-18","EPHEMERIS_TYPE":"0","OBJECT_TYPE":"PAYLOAD","TLE_LINE2":"2 46159  53.0542 292.0665 0001967  53.7398 306.3772 15.06400360126242","REF_FRAME":"TEME"},{"COUNTRY_CODE":"US","OBJECT_NAME":"STARLINK-1598","DECAY_DATE":null,"ELEMENT_SET_NO":"999","MEAN_MOTION":"15.06402308","CENTER_NAME":"EARTH","MEAN_MOTION_DDOT":"0.0000000000000","GP_ID":"219003534","RCS_SIZE":"LARGE","TIME_SYSTEM":"UTC","PERIOD":"95.592","ECCENTRICITY":"0.00019350","RA_OF_ASC_NODE":"272.0975","APOAPSIS":"548.547","SITE":"AFETR","EPOCH":"2022-11-28T06:12:09.979776","MEAN_ANOMALY":"305.1528","MEAN_ELEMENT_THEORY":"SGP4","MEAN_MOTION_DOT":"-0.00001035","CLASSIFICATION_TYPE":"U","FILE":"3672359","ARG_OF_PERICENTER":"54.9642","REF_FRAME":"TEME","TLE_LINE2":"2 46160  53.0558 272.0975 0001935  54.9642 305.1528 15.06402308126524","EPHEMERIS_TYPE":"0","LAUNCH_DATE":"2020-08-18","OBJECT_TYPE":"PAYLOAD","OBJECT_ID":"2020-057AV","BSTAR":"-0.00005058000000","SEMIMAJOR_AXIS":"6925.341","TLE_LINE1":"1 46160U 20057AV  22332.25844884 -.00001035  00000-0 -50580-4 0  9999","NORAD_CAT_ID":"46160","PERIAPSIS":"545.866","REV_AT_EPOCH":"12652","INCLINATION":"53.0558"}];
